satname,norad_id,inclination_deg,eccentricity,mean_motion_rev_per_day,perigee_km,apogee_km,l1,l2
STARLINK-1331,45578,53.0552,0.0001706,15.06396909,546.0395653441301,548.4024975044513,1 45578U 20025AZ  25312.83470429 -.00006106  00000+0 -39139-3 0  9990,2 45578  53.0552 259.1603 0001706 116.8703 243.2461 15.06396909307300
STARLINK-1333,45580,53.0561,0.0001647,15.06391192,546.0979439675957,548.3791626748607,1 45580U 20025BB  25312.84115612  .00001024  00000+0  87679-4 0  9999,2 45580  53.0561 269.1308 0001647  80.7441 279.3734 15.06391192307153
STARLINK-1335,45581,53.056,0.0001679,15.0638603,546.0916010953733,548.4171475188659,1 45581U 20025BC  25312.58037543 -.00002948  00000+0 -17917-3 0  9992,2 45581  53.0560 260.3057 0001679  86.2285 273.8896 15.06386030307253
STARLINK-1337,45582,53.0572,0.0001632,15.06392433,546.1045291309447,548.3649704700792,1 45582U 20025BD  25312.86789494  .00000509  00000+0  53096-4 0  9991,2 45582  53.0572 259.0092 0001632 100.8975 259.2197 15.06392433307299
STARLINK-1347,45586,53.0554,0.0008564,15.33063475,460.81665981587776,472.5404599068088,1 45586U 20025BH  25312.54209623  .00100215  00000+0  30614-2 0  9995,2 45586  53.0554 244.5264 0008564  43.7353 316.4325 15.33063475307468
STARLINK-1360,45588,53.041,0.0004831,15.77031909,335.61037836456217,342.1003363802556,1 45588U 20025BK  25312.31687720  .00132989  00000+0  79267-3 0  9991,2 45588  53.0410 161.7172 0004831 153.7202 206.4063 15.77031909308617
STARLINK-1364,45589,53.0544,0.0001421,15.06409321,546.1989025923922,548.1670785337092,1 45589U 20025BL  25312.87156079  .00008339  00000+0  57790-3 0  9999,2 45589  53.0544 258.9952 0001421  86.3648 273.7503 15.06409321307296
STARLINK-1365,45590,53.0544,0.0001342,15.06403547,546.271306597886,548.1300672330544,1 45590U 20025BM  25312.22375427  .00001212  00000+0  10021-3 0  9999,2 45590  53.0544 291.8988 0001342  90.8381 269.2762 15.06403547306794
STARLINK-1443,45660,53.0548,0.0001548,15.06393597,546.1591352859705,548.303229275205,1 45660U 20035D   25312.54075441 -.00001741  00000+0 -98000-4 0  9999,2 45660  53.0548 250.4797 0001548  89.3667 270.7499 15.06393597300479
STARLINK-1446,45663,53.0254,0.0002087,15.34294319,461.58961552386154,464.44511335557854,1 45663U 20035G   25312.72900557  .00032907  00000+0  98398-3 0  9992,2 45663  53.0254 210.9144 0002087  83.7816 276.3422 15.34294319301041
STARLINK-1448,45665,53.0535,0.0001285,15.06394232,546.3393265226041,548.119145645278,1 45665U 20035J   25312.54443742  .00001493  00000+0  11910-3 0  9993,2 45665  53.0535 250.4574 0001285  78.9460 281.1673 15.06394232300462
STARLINK-1451,45668,53.0547,0.000154,15.064141,546.1018467831755,548.2348408290682,1 45668U 20035M   25312.15007929  .00011416  00000+0  78372-3 0  9997,2 45668  53.0547 252.5489 0001540  91.1853 268.9313 15.06414100300419
STARLINK-1452,45669,53.0384,0.0011901,15.27356888,475.5509622073787,491.8835477050261,1 45669U 20035N   25312.47964113  .00043523  00000+0  16037-2 0  9993,2 45669  53.0384 230.8698 0011901  50.1077 310.0965 15.27356888300744
STARLINK-1453,45670,53.0516,0.0001693,15.06395726,546.0521934351218,548.3971208922376,1 45670U 20035P   25312.75731125  .00002570  00000+0  19142-3 0  9999,2 45670  53.0516 219.5063 0001693  92.8612 267.2571 15.06395726300813
STARLINK-1454,45671,53.0553,0.0001809,15.0639607,545.9708051153848,548.476400581495,1 45671U 20035Q   25312.83563257  .00001971  00000+0  15119-3 0  9992,2 45671  53.0553 249.1561 0001809  94.1755 265.9441 15.06396070300509
STARLINK-1456,45673,53.055,0.0001812,15.06406379,545.9371376748913,548.4468769071345,1 45673U 20035S   25312.05420799  .00003311  00000+0  24107-3 0  9998,2 45673  53.0550 252.6631 0001812  92.8375 267.2821 15.06406379300402
STARLINK-1457,45674,53.0527,0.0001113,15.2420629,492.4050499381292,493.9346028376822,1 45674U 20035T   25312.91667823  .01712900  00000+0  63510-1 0  9996,2 45674  53.0527 248.2163 0001113  87.8990 168.3879 15.24206290  5786
STARLINK-1458,45675,53.0551,0.0001635,15.06388561,546.1143168262261,548.3789172690012,1 45675U 20035U   25312.11686690 -.00004080  00000+0 -25525-3 0  9992,2 45675  53.0551 252.3781 0001635 102.4403 257.6769 15.06388561300373
STARLINK-1460,45676,53.0552,0.0001738,15.06387691,546.045651371267,548.4529156434146,1 45676U 20035V   25312.81720690 -.00002381  00000+0 -14101-3 0  9999,2 45676  53.0552 249.2372 0001738  81.9669 278.1517 15.06387691300478
STARLINK-1392,45677,53.0535,0.0001381,15.06381901,546.3106310254898,548.2234276183881,1 45677U 20035W   25312.82826814  .00012275  00000+0  84195-3 0  9997,2 45677  53.0535 249.1887 0001381  93.6066 266.5081 15.06381901300515
STARLINK-1394,45679,53.0542,0.0001288,15.06384013,546.3685650188236,548.1525474293067,1 45679U 20035Y   25312.82549656 -.00005486  00000+0 -34983-3 0  9993,2 45679  53.0542 239.1993 0001288  90.7835 269.3301 15.06384013300658
STARLINK-1402,45685,53.0543,0.0003329,15.2762511,480.6299799095332,485.1980676811763,1 45685U 20035AE  25312.78303640  .00057744  00000+0  21060-2 0  9999,2 45685  53.0543 230.9424 0003329 114.2703 245.8643 15.27625110300778
STARLINK-1404,45686,53.0541,0.0001496,15.06360618,546.2962105244515,548.3683109272615,1 45686U 20035AF  25312.12148647  .00017467  00000+0  11899-2 0  9999,2 45686  53.0541 242.3627 0001496  76.5349 283.5806 15.06360618300550
STARLINK-1413,45689,53.0548,0.0001279,15.06406767,546.3050687076038,548.076567563483,1 45689U 20035AJ  25312.53798582  .00001447  00000+0  11599-3 0  9995,2 45689  53.0548 240.4896 0001279  82.8721 277.2413 15.06406767300527
STARLINK-1417,45693,53.0536,0.0001652,15.06395229,546.0821104073175,548.3702504021239,1 45693U 20035AN  25312.79969468  .00005342  00000+0  37730-3 0  9994,2 45693  53.0536 239.3175 0001652  89.0205 271.0973 15.06395229300643
STARLINK-1420,45695,53.0531,0.0001831,15.06391888,545.9683842882732,548.5044560347369,1 45695U 20035AQ  25312.73425035  .00003587  00000+0  25963-3 0  9991,2 45695  53.0531 219.5998 0001831  88.3470 271.7729 15.06391888300922
STARLINK-1422,45696,53.0548,0.0001749,15.06397164,546.0090049004502,548.4314948664596,1 45696U 20035AR  25312.81075139 -.00000063  00000+0  14687-4 0  9996,2 45696  53.0548 239.2686 0001749  86.0504 274.0685 15.06397164300644
STARLINK-1351,45697,53.055,0.000165,15.06407889,546.0447008724204,548.3300579176212,1 45697U 20035AS  25312.05697403  .00002159  00000+0  16373-3 0  9997,2 45697  53.0550 222.6525 0001650  97.7045 262.4131 15.06407889300829
STARLINK-1398,45699,53.0473,0.0005638,15.52937033,404.32994542149845,411.9821694730754,1 45699U 20035AU  25311.91947713  .00107317  00000+0  16787-2 0  9995,2 45699  53.0473 180.5243 0005638 126.9641 233.1885 15.52937033301407
STARLINK-1400,45700,53.0532,0.0001814,15.06413237,545.9147378676716,548.427239605986,1 45700U 20035AV  25312.76097456  .00003215  00000+0  23454-3 0  9994,2 45700  53.0532 219.4899 0001814  97.8862 262.2333 15.06413237300929
STARLINK-1403,45701,53.0544,0.0001501,15.06395876,546.1847007174119,548.2636941488818,1 45701U 20035AW  25312.45874198  .00002839  00000+0  20941-3 0  9996,2 45701  53.0544 220.8472 0001501  83.7075 276.4085 15.06395876300872
STARLINK-1407,45703,53.0386,0.0012438,15.42371935,430.6317904980515,447.5903768309754,1 45703U 20035AY  25312.66667823  .00091455  00000+0  20661-2 0  9996,2 45703  53.0386 176.4778 0012438  87.7688 332.3570 15.42371935  5792
STARLINK-1411,45706,53.0517,0.0002473,15.42034186,438.4203421802722,441.7926454123035,1 45706U 20035BB  25312.73165247  .00074923  00000+0  17214-2 0  9991,2 45706  53.0517 203.3399 0002473 134.8503 225.2703 15.42034186301148
STARLINK-1423,45710,53.0525,0.0001663,15.06392141,546.0839552752714,548.3873342169145,1 45710U 20035BF  25312.74993104 -.00004383  00000+0 -27555-3 0  9993,2 45710  53.0525 219.5460 0001663  69.0127 291.1040 15.06392141300920
STARLINK-1433,45711,53.0533,0.0001665,15.06410447,546.026474369125,548.3326047768014,1 45711U 20035BG  25312.06803278  .00010822  00000+0  74410-3 0  9996,2 45711  53.0533 222.5997 0001665  97.8662 262.2516 15.06410447300819
STARLINK-1434,45712,53.049,0.0006293,15.15896217,513.9191604477464,522.5989645319969,1 45712U 20035BH  25312.71021351  .00026227  00000+0  13638-2 0  9993,2 45712  53.0490 215.3404 0006293  88.6423 271.5291 15.15896217300984
STARLINK-1465,45731,53.0575,0.0001324,15.06413128,546.2544119793183,548.0882336231971,1 45731U 20038B   25312.69832635 -.00002536  00000+0 -15137-3 0  9995,2 45731  53.0575  59.7654 0001324  79.8196 280.2942 15.06413128297953
STARLINK-1471,45735,53.0519,6.32e-05,15.41292177,441.8635598508581,442.72566240650576,1 45735U 20038F   25312.53061301  .00029538  00000+0  70558-3 0  9993,2 45735  53.0519 358.8366 0000632  88.2851 271.8226 15.41292177298805
STARLINK-1474,45738,53.0373,0.0004345,15.68113341,361.3700649785869,367.2292424306561,1 45738U 20038J   25312.24180501  .00094943  00000+0  83203-3 0  9991,2 45738  53.0373 316.0406 0004345  12.5285 347.5838 15.68113341299370
STARLINK-1475,45739,53.0473,0.0006851,15.82010935,320.162314796331,329.34661668268836,1 45739U 20038K   25312.91667823  .00416384  00000+0  19082-2 0  9993,2 45739  53.0473 278.5302 0006851  57.7928 138.9581 15.82010935  6024
STARLINK-1480,45741,53.0556,0.0001564,15.06399306,546.130560102014,548.2968097962666,1 45741U 20038M   25312.67989758  .00006309  00000+0  44205-3 0  9991,2 45741  53.0556  59.8514 0001564  95.1555 264.9612 15.06399306297960
STARLINK-1500,45744,53.0402,0.000162,15.27972233,480.76353866222325,482.98618250505297,1 45744U 20038Q   25312.67618370  .00034419  00000+0  12512-2 0  9991,2 45744  53.0402  37.4293 0001620 223.2350 136.8522 15.27972233298270
STARLINK-1504,45746,53.0286,0.0001659,15.40899971,442.32019889988624,444.5836020970728,1 45746U 20038S   25312.54970660  .00051660  00000+0  12393-2 0  9996,2 45746  53.0286   1.8639 0001659 275.8936  84.1879 15.40899971298751
